SHIJIAN-6 02B (SJ-6 02B)
1 29506U 06046B   26061.83154693  .00002525  00000+0  20241-3 0  9997
2 29506  97.7051  91.6223 0014211  64.7015 295.5679 15.00957477 54780
FGRST (GLAST)           
1 33053U 08029A   26061.80491028  .00004754  00000+0  18099-3 0  9999
2 33053  25.5810 222.8016 0008579 147.7649 212.3415 15.23265547979592
SDO                     
1 36395U 10005A   26061.06894471 -.00000073  00000+0  00000+0 0  9995
2 36395  34.4256  87.9640 0000402  76.5000 278.2778  1.00275266 58980
CRYOSAT 2               
1 36508U 10013A   26061.80682406  .00000228  00000+0  55959-4 0  9994
2 36508  92.0224 251.5284 0002126  86.3583 273.7867 14.51904900842641
X-SAT                   
1 37389U 11015C   26061.86299660  .00000051  00000+0  39098-4 0  9997
2 37389  98.3411  44.0082 0013024 298.2979  61.6886 14.25168642772530
GCOM-W1 (SHIZUKU)       
1 38337U 12025A   26061.79965161  .00000789  00000+0  18532-3 0  9998
2 38337  98.2046   3.9641 0001542  76.7576 336.6688 14.57085927733548
NUSTAR                  
1 38358U 12031A   26061.91668981  .00002779  00000+0  12325-3 0  9997
2 38358   6.0271 110.6092 0008917 320.4153  50.7176 15.07608530  1302
NEOSSAT                 
1 39089U 13009D   26061.44832005  .00000289  00000+0  11474-3 0  9991
2 39089  98.4135 244.0281 0010626 199.1061 160.9728 14.35780919681425
BRITE-AUSTRIA           
1 39091U 13009F   26061.49984190  .00000297  00000+0  11565-3 0  9992
2 39091  98.3949 243.5873 0009932 192.5436 167.5505 14.36491012681736
IRIS                    
1 39197U 13033A   26061.55530714  .00001756  00000+0  20830-3 0  9998
2 39197  97.9399 261.1294 0023561 309.8922  50.0221 14.85618462684544
HISAKI (SPRINT-A)       
1 39253U 13049A   26061.63187141  .00000108  00000+0  54619-4 0  9992
2 39253  29.7216  41.7369 0136737 232.9063 125.8941 13.55529845616957
CASSIOPE                
1 39265U 13055A   26061.83249271  .00038591 -61243-6  46570-3 0  9994
2 39265  80.9189 195.1814 0317856  59.1001 304.1069 15.18161942651493
STSAT-3                 
1 39422U 13066G   26061.88423878  .00004603  00000+0  35504-3 0  9991
2 39422  97.6051  33.6385 0012171  37.9125 322.2955 15.02019003668242
SWARM B                 
1 39451U 13067A   26061.85730161  .00005924  00000+0  21722-3 0  9991
2 39451  87.7481  14.5577 0003705  90.6457 269.5216 15.27777214667007
SWARM A                 
1 39452U 13067B   26061.80875630  .00012288  00000+0  22992-3 0  9999
2 39452  87.3291  95.7082 0003023  93.6390 266.5216 15.48564121689776
SWARM C                 
1 39453U 13067C   26061.80864677  .00012539  00000+0  23462-3 0  9991
2 39453  87.3288  94.2898 0003014  93.4968 266.6637 15.48563312689736
BRITE-CA1 (TORONTO)     
1 40020U 14033L   26061.62964505  .00001561  00000+0  24305-3 0  9998
2 40020  97.9555 192.6439 0077668 257.8312 101.4187 14.72438086626531
