[{"OBJECT_NAME":"SHIJIAN-6 02B (SJ-6 02B)","OBJECT_ID":"2006-046B","EPOCH":"2026-03-02T19:57:25.654752","MEAN_MOTION":15.00957477,"ECCENTRICITY":0.0014211,"INCLINATION":97.7051,"RA_OF_ASC_NODE":91.6223,"ARG_OF_PERICENTER":64.7015,"MEAN_ANOMALY":295.5679,"EPHEMERIS_TYPE":0,"CLASSIFICATION_TYPE":"U","NORAD_CAT_ID":29506,"ELEMENT_SET_NO":999,"REV_AT_EPOCH":5478,"BSTAR":0.00020241,"MEAN_MOTION_DOT":2.525e-5,"MEAN_MOTION_DDOT":0},{"OBJECT_NAME":"FGRST (GLAST)","OBJECT_ID":"2008-029A","EPOCH":"2026-03-02T19:19:04.248192","MEAN_MOTION":15.23265547,"ECCENTRICITY":0.0008579,"INCLINATION":25.581,"RA_OF_ASC_NODE":222.8016,"ARG_OF_PERICENTER":147.7649,"MEAN_ANOMALY":212.3415,"EPHEMERIS_TYPE":0,"CLASSIFICATION_TYPE":"U","NORAD_CAT_ID":33053,"ELEMENT_SET_NO":999,"REV_AT_EPOCH":97959,"BSTAR":0.00018099,"MEAN_MOTION_DOT":4.754e-5,"MEAN_MOTION_DDOT":0},{"OBJECT_NAME":"SDO","OBJECT_ID":"2010-005A","EPOCH":"2026-03-02T01:39:16.822944","MEAN_MOTION":1.00275266,"ECCENTRICITY":4.028e-5,"INCLINATION":34.4256,"RA_OF_ASC_NODE":87.964,"ARG_OF_PERICENTER":76.5,"MEAN_ANOMALY":278.2778,"EPHEMERIS_TYPE":0,"CLASSIFICATION_TYPE":"U","NORAD_CAT_ID":36395,"ELEMENT_SET_NO":999,"REV_AT_EPOCH":5898,"BSTAR":0,"MEAN_MOTION_DOT":-7.3e-7,"MEAN_MOTION_DDOT":0},{"OBJECT_NAME":"CRYOSAT 2","OBJECT_ID":"2010-013A","EPOCH":"2026-03-02T19:21:49.598784","MEAN_MOTION":14.519049,"ECCENTRICITY":0.0002126,"INCLINATION":92.0224,"RA_OF_ASC_NODE":251.5284,"ARG_OF_PERICENTER":86.3583,"MEAN_ANOMALY":273.7867,"EPHEMERIS_TYPE":0,"CLASSIFICATION_TYPE":"U","NORAD_CAT_ID":36508,"ELEMENT_SET_NO":999,"REV_AT_EPOCH":84264,"BSTAR":5.5959e-5,"MEAN_MOTION_DOT":2.28e-6,"MEAN_MOTION_DDOT":0},{"OBJECT_NAME":"X-SAT","OBJECT_ID":"2011-015C","EPOCH":"2026-03-02T20:42:42.906240","MEAN_MOTION":14.25168642,"ECCENTRICITY":0.0013024,"INCLINATION":98.3411,"RA_OF_ASC_NODE":44.0082,"ARG_OF_PERICENTER":298.2979,"MEAN_ANOMALY":61.6886,"EPHEMERIS_TYPE":0,"CLASSIFICATION_TYPE":"U","NORAD_CAT_ID":37389,"ELEMENT_SET_NO":999,"REV_AT_EPOCH":77253,"BSTAR":3.9098e-5,"MEAN_MOTION_DOT":5.1e-7,"MEAN_MOTION_DDOT":0},{"OBJECT_NAME":"GCOM-W1 (SHIZUKU)","OBJECT_ID":"2012-025A","EPOCH":"2026-03-02T19:11:29.899104","MEAN_MOTION":14.57085927,"ECCENTRICITY":0.0001542,"INCLINATION":98.2046,"RA_OF_ASC_NODE":3.9641,"ARG_OF_PERICENTER":76.7576,"MEAN_ANOMALY":336.6688,"EPHEMERIS_TYPE":0,"CLASSIFICATION_TYPE":"U","NORAD_CAT_ID":38337,"ELEMENT_SET_NO":999,"REV_AT_EPOCH":73354,"BSTAR":0.00018532,"MEAN_MOTION_DOT":7.89e-6,"MEAN_MOTION_DDOT":0},{"OBJECT_NAME":"NUSTAR","OBJECT_ID":"2012-031A","EPOCH":"2026-03-02T22:00:01.999584","MEAN_MOTION":15.0760853,"ECCENTRICITY":0.0008917,"INCLINATION":6.0271,"RA_OF_ASC_NODE":110.6092,"ARG_OF_PERICENTER":320.4153,"MEAN_ANOMALY":50.7176,"EPHEMERIS_TYPE":0,"CLASSIFICATION_TYPE":"U","NORAD_CAT_ID":38358,"ELEMENT_SET_NO":999,"REV_AT_EPOCH":130,"BSTAR":0.00012325,"MEAN_MOTION_DOT":2.779e-5,"MEAN_MOTION_DDOT":0},{"OBJECT_NAME":"NEOSSAT","OBJECT_ID":"2013-009D","EPOCH":"2026-03-02T10:45:34.852320","MEAN_MOTION":14.35780919,"ECCENTRICITY":0.0010626,"INCLINATION":98.4135,"RA_OF_ASC_NODE":244.0281,"ARG_OF_PERICENTER":199.1061,"MEAN_ANOMALY":160.9728,"EPHEMERIS_TYPE":0,"CLASSIFICATION_TYPE":"U","NORAD_CAT_ID":39089,"ELEMENT_SET_NO":999,"REV_AT_EPOCH":68142,"BSTAR":0.00011473545,"MEAN_MOTION_DOT":2.89e-6,"MEAN_MOTION_DDOT":0},{"OBJECT_NAME":"BRITE-AUSTRIA","OBJECT_ID":"2013-009F","EPOCH":"2026-03-02T11:59:46.340160","MEAN_MOTION":14.36491012,"ECCENTRICITY":0.00099324,"INCLINATION":98.3949,"RA_OF_ASC_NODE":243.5873,"ARG_OF_PERICENTER":192.5436,"MEAN_ANOMALY":167.5505,"EPHEMERIS_TYPE":0,"CLASSIFICATION_TYPE":"U","NORAD_CAT_ID":39091,"ELEMENT_SET_NO":999,"REV_AT_EPOCH":68173,"BSTAR":0.00011565207,"MEAN_MOTION_DOT":2.97e-6,"MEAN_MOTION_DDOT":0},{"OBJECT_NAME":"IRIS","OBJECT_ID":"2013-033A","EPOCH":"2026-03-02T13:19:38.536896","MEAN_MOTION":14.85618462,"ECCENTRICITY":0.0023561,"INCLINATION":97.9399,"RA_OF_ASC_NODE":261.1294,"ARG_OF_PERICENTER":309.8922,"MEAN_ANOMALY":50.0221,"EPHEMERIS_TYPE":0,"CLASSIFICATION_TYPE":"U","NORAD_CAT_ID":39197,"ELEMENT_SET_NO":999,"REV_AT_EPOCH":68454,"BSTAR":0.0002083,"MEAN_MOTION_DOT":1.756e-5,"MEAN_MOTION_DDOT":0},{"OBJECT_NAME":"HISAKI (SPRINT-A)","OBJECT_ID":"2013-049A","EPOCH":"2026-03-02T15:09:53.689824","MEAN_MOTION":13.55529845,"ECCENTRICITY":0.0136737,"INCLINATION":29.7216,"RA_OF_ASC_NODE":41.7369,"ARG_OF_PERICENTER":232.9063,"MEAN_ANOMALY":125.8941,"EPHEMERIS_TYPE":0,"CLASSIFICATION_TYPE":"U","NORAD_CAT_ID":39253,"ELEMENT_SET_NO":999,"REV_AT_EPOCH":61695,"BSTAR":5.4619e-5,"MEAN_MOTION_DOT":1.08e-6,"MEAN_MOTION_DDOT":0},{"OBJECT_NAME":"CASSIOPE","OBJECT_ID":"2013-055A","EPOCH":"2026-03-02T19:58:47.370144","MEAN_MOTION":15.18161942,"ECCENTRICITY":0.0317856,"INCLINATION":80.9189,"RA_OF_ASC_NODE":195.1814,"ARG_OF_PERICENTER":59.1001,"MEAN_ANOMALY":304.1069,"EPHEMERIS_TYPE":0,"CLASSIFICATION_TYPE":"U","NORAD_CAT_ID":39265,"ELEMENT_SET_NO":999,"REV_AT_EPOCH":65149,"BSTAR":0.0004657,"MEAN_MOTION_DOT":0.00038591,"MEAN_MOTION_DDOT":-6.1243e-7},{"OBJECT_NAME":"STSAT-3","OBJECT_ID":"2013-066G","EPOCH":"2026-03-02T21:13:18.230592","MEAN_MOTION":15.02019003,"ECCENTRICITY":0.0012171,"INCLINATION":97.6051,"RA_OF_ASC_NODE":33.6385,"ARG_OF_PERICENTER":37.9125,"MEAN_ANOMALY":322.2955,"EPHEMERIS_TYPE":0,"CLASSIFICATION_TYPE":"U","NORAD_CAT_ID":39422,"ELEMENT_SET_NO":999,"REV_AT_EPOCH":66824,"BSTAR":0.00035504,"MEAN_MOTION_DOT":4.603e-5,"MEAN_MOTION_DDOT":0},{"OBJECT_NAME":"SWARM B","OBJECT_ID":"2013-067A","EPOCH":"2026-03-02T20:34:30.859104","MEAN_MOTION":15.27777214,"ECCENTRICITY":0.0003705,"INCLINATION":87.7481,"RA_OF_ASC_NODE":14.5577,"ARG_OF_PERICENTER":90.6457,"MEAN_ANOMALY":269.5216,"EPHEMERIS_TYPE":0,"CLASSIFICATION_TYPE":"U","NORAD_CAT_ID":39451,"ELEMENT_SET_NO":999,"REV_AT_EPOCH":66700,"BSTAR":0.00021722,"MEAN_MOTION_DOT":5.924e-5,"MEAN_MOTION_DDOT":0},{"OBJECT_NAME":"SWARM A","OBJECT_ID":"2013-067B","EPOCH":"2026-03-02T19:24:36.544320","MEAN_MOTION":15.48564121,"ECCENTRICITY":0.0003023,"INCLINATION":87.3291,"RA_OF_ASC_NODE":95.7082,"ARG_OF_PERICENTER":93.639,"MEAN_ANOMALY":266.5216,"EPHEMERIS_TYPE":0,"CLASSIFICATION_TYPE":"U","NORAD_CAT_ID":39452,"ELEMENT_SET_NO":999,"REV_AT_EPOCH":68977,"BSTAR":0.00022992,"MEAN_MOTION_DOT":0.00012288,"MEAN_MOTION_DDOT":0},{"OBJECT_NAME":"SWARM C","OBJECT_ID":"2013-067C","EPOCH":"2026-03-02T19:24:27.080928","MEAN_MOTION":15.48563312,"ECCENTRICITY":0.0003014,"INCLINATION":87.3288,"RA_OF_ASC_NODE":94.2898,"ARG_OF_PERICENTER":93.4968,"MEAN_ANOMALY":266.6637,"EPHEMERIS_TYPE":0,"CLASSIFICATION_TYPE":"U","NORAD_CAT_ID":39453,"ELEMENT_SET_NO":999,"REV_AT_EPOCH":68973,"BSTAR":0.00023462,"MEAN_MOTION_DOT":0.00012539,"MEAN_MOTION_DDOT":0},{"OBJECT_NAME":"BRITE-CA1 (TORONTO)","OBJECT_ID":"2014-033L","EPOCH":"2026-03-02T15:06:41.332320","MEAN_MOTION":14.72438086,"ECCENTRICITY":0.0077668,"INCLINATION":97.9555,"RA_OF_ASC_NODE":192.6439,"ARG_OF_PERICENTER":257.8312,"MEAN_ANOMALY":101.4187,"EPHEMERIS_TYPE":0,"CLASSIFICATION_TYPE":"U","NORAD_CAT_ID":40020,"ELEMENT_SET_NO":999,"REV_AT_EPOCH":62653,"BSTAR":0.00024305,"MEAN_MOTION_DOT":1.561e-5,"MEAN_MOTION_DDOT":0}]
